{
  "type": "FeatureCollection",
  "features": [
    {
      "type": "Feature",
      "properties": {
        "norad_id": 37867,
        "name": "COSMOS 2476 (744)",
        "group": "glo-ops",
        "lat": 63.90483886791682,
        "lon": -171.36677371497095,
        "alt_km": 19166.2995618957,
        "timestamp": "2025-12-06T05:40:09.502544+00:00",
        "meta_object_name": "COSMOS 2476 (744)",
        "meta_object_id": "2011-064A",
        "meta_epoch": "2025-12-02T19:57:36.313920",
        "meta_mean_motion": 2.13101261,
        "meta_eccentricity": 0.00239603,
        "meta_inclination": 65.1573,
        "meta_ra_of_asc_node": 79.5068,
        "meta_arg_of_pericenter": 233.4935,
        "meta_mean_anomaly": 133.1658,
        "meta_ephemeris_type": 0,
        "meta_classification_type": "U",
        "meta_norad_cat_id": 37867,
        "meta_element_set_no": 999,
        "meta_rev_at_epoch": 10958,
        "meta_bstar": 0,
        "meta_mean_motion_dot": -2.2e-07,
        "meta_mean_motion_ddot": 0,
        "tle_line1": "1 37867U 11064A   25336.83167030 -.00000022  00000+0  00000+0 0  9993",
        "tle_line2": "2 37867  65.1573  79.5068 0023960 233.4935 133.1658  2.13101261109581"
      },
      "geometry": {
        "type": "Point",
        "coordinates": [
          -171.36677371497095,
          63.90483886791682
        ]
      }
    },
    {
      "type": "Feature",
      "properties": {
        "norad_id": 37868,
        "name": "COSMOS 2477 (745)",
        "group": "glo-ops",
        "lat": -63.50918172235516,
        "lon": 11.405403801285335,
        "alt_km": 19099.063796909522,
        "timestamp": "2025-12-06T05:40:09.502555+00:00",
        "meta_object_name": "COSMOS 2477 (745)",
        "meta_object_id": "2011-064B",
        "meta_epoch": "2025-12-01T05:34:43.743072",
        "meta_mean_motion": 2.1310269,
        "meta_eccentricity": 0.00209845,
        "meta_inclination": 65.1625,
        "meta_ra_of_asc_node": 79.6383,
        "meta_arg_of_pericenter": 233.8301,
        "meta_mean_anomaly": 166.8442,
        "meta_ephemeris_type": 0,
        "meta_classification_type": "U",
        "meta_norad_cat_id": 37868,
        "meta_element_set_no": 999,
        "meta_rev_at_epoch": 10954,
        "meta_bstar": 0,
        "meta_mean_motion_dot": -1.2e-07,
        "meta_mean_motion_ddot": 0,
        "tle_line1": "1 37868U 11064B   25335.23245073 -.00000012  00000+0  00000+0 0  9990",
        "tle_line2": "2 37868  65.1625  79.6383 0020984 233.8301 166.8442  2.13102690109542"
      },
      "geometry": {
        "type": "Point",
        "coordinates": [
          11.405403801285335,
          -63.50918172235516
        ]
      }
    },
    {
      "type": "Feature",
      "properties": {
        "norad_id": 37869,
        "name": "COSMOS 2475 (743)",
        "group": "glo-ops",
        "lat": -48.31159525614636,
        "lon": -69.24553361765174,
        "alt_km": 19070.833016197757,
        "timestamp": "2025-12-06T05:40:09.502567+00:00",
        "meta_object_name": "COSMOS 2475 (743)",
        "meta_object_id": "2011-064C",
        "meta_epoch": "2025-12-02T03:10:18.719904",
        "meta_mean_motion": 2.13101359,
        "meta_eccentricity": 0.0026048,
        "meta_inclination": 65.1701,
        "meta_ra_of_asc_node": 79.6277,
        "meta_arg_of_pericenter": 248.2415,
        "meta_mean_anomaly": 78.6584,
        "meta_ephemeris_type": 0,
        "meta_classification_type": "U",
        "meta_norad_cat_id": 37869,
        "meta_element_set_no": 999,
        "meta_rev_at_epoch": 10956,
        "meta_bstar": 0,
        "meta_mean_motion_dot": -1.8e-07,
        "meta_mean_motion_ddot": 0,
        "tle_line1": "1 37869U 11064C   25336.13216111 -.00000018  00000+0  00000+0 0  9998",
        "tle_line2": "2 37869  65.1701  79.6277 0026048 248.2415  78.6584  2.13101359109563"
      },
      "geometry": {
        "type": "Point",
        "coordinates": [
          -69.24553361765174,
          -48.31159525614636
        ]
      }
    },
    {
      "type": "Feature",
      "properties": {
        "norad_id": 39155,
        "name": "COSMOS 2485 (747)",
        "group": "glo-ops",
        "lat": 30.051305967385957,
        "lon": -115.31782833097576,
        "alt_km": 19118.25266588585,
        "timestamp": "2025-12-06T05:40:09.502578+00:00",
        "meta_object_name": "COSMOS 2485 (747)",
        "meta_object_id": "2013-019A",
        "meta_epoch": "2025-12-05T02:32:45.729312",
        "meta_mean_motion": 2.13102875,
        "meta_eccentricity": 0.00246247,
        "meta_inclination": 65.3094,
        "meta_ra_of_asc_node": 80.124,
        "meta_arg_of_pericenter": 229.2984,
        "meta_mean_anomaly": 130.4888,
        "meta_ephemeris_type": 0,
        "meta_classification_type": "U",
        "meta_norad_cat_id": 39155,
        "meta_element_set_no": 999,
        "meta_rev_at_epoch": 9814,
        "meta_bstar": 0,
        "meta_mean_motion_dot": -2.1e-07,
        "meta_mean_motion_ddot": 0,
        "tle_line1": "1 39155U 13019A   25339.10608483 -.00000021  00000+0  00000+0 0  9991",
        "tle_line2": "2 39155  65.3094  80.1240 0024624 229.2984 130.4888  2.13102875 98144"
      },
      "geometry": {
        "type": "Point",
        "coordinates": [
          -115.31782833097576,
          30.051305967385957
        ]
      }
    },
    {
      "type": "Feature",
      "properties": {
        "norad_id": 39620,
        "name": "COSMOS 2492 (754)",
        "group": "glo-ops",
        "lat": 1.2956712716271193,
        "lon": 139.88586015249496,
        "alt_km": 19154.549818055537,
        "timestamp": "2025-12-06T05:40:09.502589+00:00",
        "meta_object_name": "COSMOS 2492 (754)",
        "meta_object_id": "2014-012A",
        "meta_epoch": "2025-12-02T17:14:30.403680",
        "meta_mean_motion": 2.13103072,
        "meta_eccentricity": 0.00141646,
        "meta_inclination": 65.4134,
        "meta_ra_of_asc_node": 320.6107,
        "meta_arg_of_pericenter": 311.0276,
        "meta_mean_anomaly": 48.8557,
        "meta_ephemeris_type": 0,
        "meta_classification_type": "U",
        "meta_norad_cat_id": 39620,
        "meta_element_set_no": 999,
        "meta_rev_at_epoch": 9105,
        "meta_bstar": 0,
        "meta_mean_motion_dot": -3.6e-07,
        "meta_mean_motion_ddot": 0,
        "tle_line1": "1 39620U 14012A   25336.71840745 -.00000036  00000+0  00000+0 0  9991",
        "tle_line2": "2 39620  65.4134 320.6107 0014164 311.0276  48.8557  2.13103072 91051"
      },
      "geometry": {
        "type": "Point",
        "coordinates": [
          139.88586015249496,
          1.2956712716271193
        ]
      }
    },
    {
      "type": "Feature",
      "properties": {
        "norad_id": 40001,
        "name": "COSMOS 2500 (755)",
        "group": "glo-ops",
        "lat": 41.25814045414777,
        "lon": -16.001733157512998,
        "alt_km": 19145.713355433076,
        "timestamp": "2025-12-06T05:40:09.502601+00:00",
        "meta_object_name": "COSMOS 2500 (755)",
        "meta_object_id": "2014-032A",
        "meta_epoch": "2025-12-04T07:09:49.504896",
        "meta_mean_motion": 2.13106037,
        "meta_eccentricity": 0.0008267,
        "meta_inclination": 65.3482,
        "meta_ra_of_asc_node": 320.3199,
        "meta_arg_of_pericenter": 219.122,
        "meta_mean_anomaly": 140.8171,
        "meta_ephemeris_type": 0,
        "meta_classification_type": "U",
        "meta_norad_cat_id": 40001,
        "meta_element_set_no": 999,
        "meta_rev_at_epoch": 8930,
        "meta_bstar": 0,
        "meta_mean_motion_dot": -4.5e-07,
        "meta_mean_motion_ddot": 0,
        "tle_line1": "1 40001U 14032A   25338.29848964 -.00000045  00000+0  00000+0 0  9994",
        "tle_line2": "2 40001  65.3482 320.3199 0008267 219.1220 140.8171  2.13106037 89307"
      },
      "geometry": {
        "type": "Point",
        "coordinates": [
          -16.001733157512998,
          41.25814045414777
        ]
      }
    },
    {
      "type": "Feature",
      "properties": {
        "norad_id": 40315,
        "name": "COSMOS 2501 (702K)",
        "group": "glo-ops",
        "lat": -24.280902236759314,
        "lon": 29.995908293912382,
        "alt_km": 19081.98970650863,
        "timestamp": "2025-12-06T05:40:09.502612+00:00",
        "meta_object_name": "COSMOS 2501 (702K)",
        "meta_object_id": "2014-075A",
        "meta_epoch": "2025-12-04T02:08:01.213152",
        "meta_mean_motion": 2.13101298,
        "meta_eccentricity": 0.0020149,
        "meta_inclination": 63.6138,
        "meta_ra_of_asc_node": 197.1248,
        "meta_arg_of_pericenter": 204.6361,
        "meta_mean_anomaly": 155.363,
        "meta_ephemeris_type": 0,
        "meta_classification_type": "U",
        "meta_norad_cat_id": 40315,
        "meta_element_set_no": 999,
        "meta_rev_at_epoch": 8569,
        "meta_bstar": 0,
        "meta_mean_motion_dot": 1.03e-06,
        "meta_mean_motion_ddot": 0,
        "tle_line1": "1 40315U 14075A   25338.08890293  .00000103  00000+0  00000+0 0  9992",
        "tle_line2": "2 40315  63.6138 197.1248 0020149 204.6361 155.3630  2.13101298 85690"
      },
      "geometry": {
        "type": "Point",
        "coordinates": [
          29.995908293912382,
          -24.280902236759314
        ]
      }
    }
  ]
}